#aV2012  3 13  0  0  0.00000000     288 DD+AD WGS84 FIT  NGA
## 1679 172800.00000000   300.00000000 55999 0.0000000000000
+   32     1  2  3  4  5  6  7  8  9 10 11 12 13 14 15 16 17
+         18 19 20 21 22 23 24 25 26 27 28 29 30 31 32  0  0
+          0  0  0  0  0  0  0  0  0  0  0  0  0  0  0  0  0
+          0  0  0  0  0  0  0  0  0  0  0  0  0  0  0  0  0
+          0  0  0  0  0  0  0  0  0  0  0  0  0  0  0  0  0
++         2  2  2  2  2  2  2  2  2  2  2  2  2  2  2  2  2
++         2  2  2  2  2  2  2  2  2  2  2  2  2  2  2  0  0
++         0  0  0  0  0  0  0  0  0  0  0  0  0  0  0  0  0
++         0  0  0  0  0  0  0  0  0  0  0  0  0  0  0  0  0
++         0  0  0  0  0  0  0  0  0  0  0  0  0  0  0  0  0
%c cc cc ccc ccc cccc cccc cccc cccc ccccc ccccc ccccc ccccc
%c cc cc ccc ccc cccc cccc cccc cccc ccccc ccccc ccccc ccccc
%f  0.0000000  0.000000000  0.00000000000  0.000000000000000
%f  0.0000000  0.000000000  0.00000000000  0.000000000000000
%i    0    0    0    0      0      0      0      0         0
%i    0    0    0    0      0      0      0      0         0
/*      NGA, ST. LOUIS,MO.                                  
/*   EPHEMERIS COMPUTED FROM  1 DAYS OF DATA
/*   EPOCHA SMOOTHER  
/* CCCCCCCCCCCCCCCCCCCCCCCCCCCCCCCCCCCCCCCCCCCCCCCCCCCCCCCCC
*  2012  3 13 23 40  0.00000000                                                 
P  1 -17744.817324 -13499.686568 -14461.467259    231.878900                    
V  1  18415.381871   1210.529690 -23724.614318      0.072883                    
P  2  -6735.800220  14589.688961  21195.119352    382.691014                    
V  2 -26310.248875  -5250.748034  -5276.979585      0.014931                    
P  3   8111.238626 -23880.393466  -8319.437842     21.979681                    
V  3   8516.655519  -6486.181351  28783.264344      0.052229                    
P  4 -18762.758043   8825.287733  16527.766508    122.018823                    
V  4 -20646.604164  -6000.538296 -19617.426309      0.114878                    
P  5     78.441711  24029.114983  11151.018282   -293.427019                    
V  5  -7373.901554 -12516.243954  27085.149110     -0.042970                    
P  6  13013.069470 -22506.413429  -4503.643852     31.916413                    
V  6   6578.697390  -2461.829183  30705.825370      0.001609                    
P  7 -25750.468874  -6696.221510   2186.141943     64.174558                    
V  7   3092.072219  -1538.720752  31766.798077      0.029672                    
P  8 -24793.532821   -283.533234 -10219.582076      0.797418                    
V  8 -12051.108902  -4544.381147  28631.245448      0.000821                    
P  9  13808.315515  14517.092202 -17972.050819    144.572130                    
V  9 -21549.892566  -2648.957211 -19322.792193      0.025313                    
P 10 -12752.375316   9542.535140  20951.832583    -32.145444                    
V 10  -9356.863398 -25660.442938   6313.595095     -0.012970                    
P 11 -12249.352436 -14500.649482 -19056.593456   -241.356544                    
V 11  23413.284939  -3801.408981 -12074.596084     -0.036689                    
P 12  11042.617912  23831.058852   4583.510303     57.684746                    
V 12   -149.729588   6121.893186 -31323.608513      0.021402                    
P 13 -17221.576446  -1721.205479  20028.806538    219.642591                    
V 13  17803.748652 -18495.500152  13537.806810     -0.022095                    
P 14  20861.843712 -14652.683240  -7016.182096    196.973668                    
V 14  -4774.352458   8135.393402 -30564.437494      0.012280                    
P 15   3977.823342  17421.219454 -19593.996902    -92.044572                    
V 15 -16977.650417  18376.134543  13105.682967      0.003339                    
P 16   1082.243533 -23584.167783  11860.383584   -227.273156                    
V 16   6447.623278  13839.778843  27267.254812     -0.015434                    
P 17 -20922.555528  12870.244663  -9616.714127    142.809779                    
V 17   6484.609113 -11061.073674 -28640.998221     -0.024796                    
P 18  17202.443751   8116.400578 -18328.886613    186.022025                    
V 18   6054.292552  23264.980437  15326.614141      0.018160                    
P 19    326.064841 -18689.788194 -18755.384328   -245.210246                    
V 19  18213.778502 -15525.570595  16192.555830     -0.038140                    
P 20 -14373.712832 -21081.168248   7346.652774     63.393963                    
V 20   -310.169712 -10185.512649 -29117.600400     -0.001350                    
P 21  26513.506258   3944.282959  -1560.418058   -210.455913                    
V 21   1851.707116   3651.640268  30642.641970     -0.024866                    
P 22  13550.119437  -8799.975551 -20893.862491    143.049369                    
V 22   9270.474091  25453.099935  -4786.435383      0.000649                    
P 23 -10215.593461 -11374.723776  21727.474673    224.529519                    
V 23  18469.407039 -20441.105207  -2377.507944     -0.034862                    
P 24  10510.056070 -12678.254341  20675.744672   -254.486121                    
V 24   9571.651807  24776.491983  10426.490312      0.006097                    
P 25  16412.922870  14196.592136  15327.599410     32.215383                    
V 25   4944.970889  18919.386222 -22728.813932      0.002591                    
P 26  -9793.881268  21378.850559 -12569.570840   -151.063953                    
V 26 -12035.975066   9289.162399  26857.056506     -0.573173                    
P 27   7288.321593  14778.846061 -20318.287907    366.500061                    
V 27 -26861.118420  -3276.577497 -11217.021221      0.040810                    
P 28 -13725.287471   4973.660252 -21632.485541    122.298015                    
V 28  -8437.939138 -27500.747146  -1161.876006      0.040401                    
P 29  16110.434160   3955.211916  20801.459488    293.482203                    
V 29 -17313.856438  19762.825300   9724.270176      0.036278                    
P 30   6232.855536 -17484.257862  18640.686473    -82.420943                    
V 30  11789.613147  21442.011528  15878.812420     -0.172425                    
P 31  17907.053234  -8601.157803  17945.040445    219.180363                    
V 31  21585.113528   5515.607078 -18870.144804      0.044814                    
P 32  -7469.431451 -25741.394516   1166.197088   -419.901059                    
V 32   2298.621994  -1830.704725 -31208.455035     -0.048904                    
EOF
